[{"OBJECT_NAME":"TIANMU-1 19","OBJECT_ID":"2023-208A","EPOCH":"2026-03-09T22:13:36.801696","MEAN_MOTION":15.2984143,"ECCENTRICITY":0.00039292,"INCLINATION":97.4383,"RA_OF_ASC_NODE":184.9132,"ARG_OF_PERICENTER":316.2611,"MEAN_ANOMALY":43.8317,"EPHEMERIS_TYPE":0,"CLASSIFICATION_TYPE":"U","NORAD_CAT_ID":58660,"ELEMENT_SET_NO":999,"REV_AT_EPOCH":12214,"BSTAR":0.00040995676,"MEAN_MOTION_DOT":0.00011779,"MEAN_MOTION_DDOT":0},{"OBJECT_NAME":"STARLINK-33686","OBJECT_ID":"2025-065Z","EPOCH":"2026-03-09T11:01:03.255744","MEAN_MOTION":15.27595088,"ECCENTRICITY":0.00012654,"INCLINATION":42.9974,"RA_OF_ASC_NODE":108.4015,"ARG_OF_PERICENTER":261.587,"MEAN_ANOMALY":98.4839,"EPHEMERIS_TYPE":0,"CLASSIFICATION_TYPE":"U","NORAD_CAT_ID":63422,"ELEMENT_SET_NO":999,"REV_AT_EPOCH":5280,"BSTAR":0.0010038045,"MEAN_MOTION_DOT":0.00027476,"MEAN_MOTION_DDOT":0}]
